[
  {
    "LOCATION_ID": "1",
    "LATITUDE": "42.36",
    "LONGITUDE": "-71.05",
    "ADDRESS": "'123 Main St'",
    "CITY_CODE": "100",
    "ZIP_CODE": "'02118'",
    "LOCATION_TYPE": "'user'",
    "WAREHOUSE_WAREHOUSE_ID": "1"
  },
  {
    "LOCATION_ID": "2",
    "LATITUDE": "42.37",
    "LONGITUDE": "-71.06",
    "ADDRESS": "'456 Elm St'",
    "CITY_CODE": "101",
    "ZIP_CODE": "'02119'",
    "LOCATION_TYPE": "'user'",
    "WAREHOUSE_WAREHOUSE_ID": "2"
  },
  {
    "LOCATION_ID": "3",
    "LATITUDE": "42.38",
    "LONGITUDE": "-71.07",
    "ADDRESS": "'789 Oak St'",
    "CITY_CODE": "102",
    "ZIP_CODE": "'02120'",
    "LOCATION_TYPE": "'warehouse'",
    "WAREHOUSE_WAREHOUSE_ID": "3"
  },
  {
    "LOCATION_ID": "4",
    "LATITUDE": "42.39",
    "LONGITUDE": "-71.08",
    "ADDRESS": "'101 Pine St'",
    "CITY_CODE": "103",
    "ZIP_CODE": "'02121'",
    "LOCATION_TYPE": "'user'",
    "WAREHOUSE_WAREHOUSE_ID": "4"
  },
  {
    "LOCATION_ID": "5",
    "LATITUDE": "42.4",
    "LONGITUDE": "-71.09",
    "ADDRESS": "'202 Cedar St'",
    "CITY_CODE": "104",
    "ZIP_CODE": "'02122'",
    "LOCATION_TYPE": "'user'",
    "WAREHOUSE_WAREHOUSE_ID": "5"
  },
  {
    "LOCATION_ID": "6",
    "LATITUDE": "42.41",
    "LONGITUDE": "-71.1",
    "ADDRESS": "'303 Birch St'",
    "CITY_CODE": "105",
    "ZIP_CODE": "'02123'",
    "LOCATION_TYPE": "'user'",
    "WAREHOUSE_WAREHOUSE_ID": "6"
  },
  {
    "LOCATION_ID": "7",
    "LATITUDE": "42.42",
    "LONGITUDE": "-71.11",
    "ADDRESS": "'404 Maple St'",
    "CITY_CODE": "106",
    "ZIP_CODE": "'02124'",
    "LOCATION_TYPE": "'user'",
    "WAREHOUSE_WAREHOUSE_ID": "7"
  },
  {
    "LOCATION_ID": "8",
    "LATITUDE": "42.43",
    "LONGITUDE": "-71.12",
    "ADDRESS": "'505 Ash St'",
    "CITY_CODE": "107",
    "ZIP_CODE": "'02125'",
    "LOCATION_TYPE": "'user'",
    "WAREHOUSE_WAREHOUSE_ID": "8"
  },
  {
    "LOCATION_ID": "9",
    "LATITUDE": "42.44",
    "LONGITUDE": "-71.13",
    "ADDRESS": "'606 Walnut St'",
    "CITY_CODE": "108",
    "ZIP_CODE": "'02126'",
    "LOCATION_TYPE": "'user'",
    "WAREHOUSE_WAREHOUSE_ID": "9"
  },
  {
    "LOCATION_ID": "10",
    "LATITUDE": "42.45",
    "LONGITUDE": "-71.14",
    "ADDRESS": "'707 Cherry St'",
    "CITY_CODE": "109",
    "ZIP_CODE": "'02127'",
    "LOCATION_TYPE": "'user'",
    "WAREHOUSE_WAREHOUSE_ID": "10"
  },
  {
    "LOCATION_ID": "11",
    "LATITUDE": "42.46",
    "LONGITUDE": "-71.15",
    "ADDRESS": "'808 Poplar St'",
    "CITY_CODE": "110",
    "ZIP_CODE": "'02128'",
    "LOCATION_TYPE": "'user'",
    "WAREHOUSE_WAREHOUSE_ID": "11"
  }
]